ORBCOMM FM33 [-]        
1 25983U 99065D   23225.28508811  .00001084  00000+0  41266-3 0  9997
2 25983  45.0298 313.4539 0009993 269.1870 107.0087 14.36631932239137
ORBCOMM FM36 [-]        
1 25984U 99065E   23225.47632969  .00001197  00000+0  47018-3 0  9997
2 25984  45.0417  33.3847 0004112 160.5019 199.5987 14.34516315238160
ORBCOMM FM35 [+]        
1 25985U 99065F   23226.42948160  .00000963  00000+0  39025-3 0  9996
2 25985  45.0417  30.8427 0002866 262.7211  97.3310 14.34240717238301
ORBCOMM FM34 [-]        
1 25986U 99065G   23226.46078897  .00000982  00000+0  39716-3 0  9990
2 25986  45.0412  31.1450 0004005 208.5440 151.5188 14.34179470238275
ORBCOMM FM38 [-]        
1 33060U 08031A   23226.10208288  .00001458  00000+0  23996-3 0  9997
2 33060  48.4412 267.9275 0005376  29.2014 330.9199 14.75850724815151
ORBCOMM FM41 [-]        
1 33061U 08031B   23225.58267840  .00001473  00000+0  24329-3 0  9996
2 33061  48.4455 276.4095 0004715  11.6461 107.7261 14.75625746815032
ORBCOMM FM29 [-]        
1 33062U 08031C   23226.36154182  .00001547  00000+0  25485-3 0  9994
2 33062  48.4408 280.6803 0006529  16.1257  85.5222 14.75496000815010
ORBCOMM FM39 [-]        
1 33063U 08031D   23225.94096516  .00001395  00000+0  23692-3 0  9993
2 33063  48.4429 301.3540 0007738 352.3032   7.7761 14.74686458814708
